GPS BIIR-2  (PRN 13)    
1 24876U 97035A   17360.02129769  .00000075  00000-0  00000+0 0  9995
2 24876  55.5125 219.5677 0034580  94.8353 265.6370  2.00565125149673
GPS BIIR-3  (PRN 11)    
1 25933U 99055A   17360.56834350 -.00000052  00000-0  00000+0 0  9998
2 25933  51.7670  69.2230 0166090  99.2496 221.7659  2.00554056133504
GPS BIIR-4  (PRN 20)    
1 26360U 00025A   17360.46032545  .00000077  00000-0  00000+0 0  9993
2 26360  53.1571 146.8688 0043893 100.8050 244.4043  2.00551863129196
GPS BIIR-5  (PRN 28)    
1 26407U 00040A   17360.59193208 -.00000039  00000-0  00000+0 0  9999
2 26407  56.5635 337.6402 0201655 271.7676  94.2839  2.00564699127872
GPS BIIR-6  (PRN 14)    
1 26605U 00071A   17360.65480802  .00000084  00000-0  00000+0 0  9998
2 26605  55.0848 217.2004 0094585 248.5823  69.3701  2.00557466125470
GPS BIIR-7  (PRN 18)    
1 26690U 01004A   17360.54775404  .00000082  00000-0  00000+0 0  9990
2 26690  53.0760 149.7898 0185078 259.0238  97.2471  2.00566209123871
GPS BIIR-8  (PRN 16)    
1 27663U 03005A   17360.19219483 -.00000038  00000-0  00000+0 0  9997
2 27663  56.6302 337.4058 0095261  24.5523 167.3323  2.00577597109223
GPS BIIR-9  (PRN 21)    
1 27704U 03010A   17360.54067451 -.00000028  00000-0  00000+0 0  9993
2 27704  53.9791  90.2419 0244237 267.5774 144.3160  2.00549194108036
GPS BIIR-10 (PRN 22)    
1 28129U 03058A   17360.21521344  .00000081  00000-0  00000+0 0  9995
2 28129  52.9685 149.7726 0073856 266.1639  92.9793  2.00567347102722
GPS BIIR-11 (PRN 19)    
1 28190U 04009A   17360.15823922 -.00000051  00000-0  00000+0 0  9998
2 28190  56.0994  38.3288 0095235  62.7212 259.5415  2.00561819100904
GPS BIIR-12 (PRN 23)    
1 28361U 04023A   17360.34116449  .00000087  00000-0  00000+0 0  9992
2 28361  54.0786 212.1295 0120149 222.7808 143.1371  2.00568893 98996
GPS BIIR-13 (PRN 02)    
1 28474U 04045A   17360.47022865 -.00000029  00000-0  00000+0 0  9990
2 28474  54.3530  89.7916 0177482 250.1993 212.9882  2.00566298 96358
GPS BIIRM-1 (PRN 17)    
1 28874U 05038A   17360.39134935 -.00000050  00000-0  00000+0 0  9994
2 28874  56.2483  35.6077 0125194 256.3732 255.0909  2.00556845 89751
GPS BIIRM-2 (PRN 31)    
1 29486U 06042A   17360.38770598 -.00000018  00000-0  00000+0 0  9994
2 29486  55.2797 274.5947 0088539 347.6395  81.2930  2.00574343 82476
GPS BIIRM-3 (PRN 12)    
1 29601U 06052A   17360.23570155 -.00000039  00000-0  00000+0 0  9998
2 29601  56.6046 336.3218 0065325  50.7281 309.8599  2.00564476 81384
GPS BIIRM-4 (PRN 15)    
1 32260U 07047A   17360.05035487  .00000088  00000-0  00000+0 0  9995
2 32260  53.2039 208.3184 0099352  36.3001 324.4377  2.00563805 74767
GPS BIIRM-5 (PRN 29)    
1 32384U 07062A   17360.54104544 -.00000049  00000-0  00000+0 0  9992
2 32384  56.3177  36.1973 0002922  13.9670 117.4192  2.00554037 73507
GPS BIIRM-6 (PRN 07)    
1 32711U 08012A   17360.46169259 -.00000018  00000-0  00000+0 0  9993
2 32711  55.0104 273.9122 0112259 215.1748 144.1263  2.00559824 71683
GPS BIIRM-8 (PRN 05)    
1 35752U 09043A   17360.46738326  .00000087  00000-0  00000+0 0  9998
2 35752  54.2845 151.7193 0051590  34.2626 358.5799  2.00570177 61273
GPS BIIF-1  (PRN 25)    
1 36585U 10022A   17360.58453611 -.00000041  00000-0  00000+0 0  9997
2 36585  55.9025 332.9919 0067173  44.5581 176.7184  2.00559776 55513
GPS BIIF-2  (PRN 01)    
1 37753U 11036A   17360.61908539 -.00000023  00000-0  00000+0 0  9999
2 37753  55.5555  93.1033 0070580  34.2986 298.4654  2.00563256 47208
GPS BIIF-3  (PRN 24)    
1 38833U 12053A   17360.14691393 -.00000015  00000-0  00000+0 0  9995
2 38833  54.0394 270.6526 0064443  26.6749 333.7052  2.00564424 38264
GPS BIIF-4  (PRN 27)    
1 39166U 13023A   17360.49924083 -.00000049  00000-0  00000+0 0  9993
2 39166  55.9511  32.5559 0051426  17.8225 342.4164  2.00563529 33805
GPS BIIF-5  (PRN 30)    
1 39533U 14008A   17359.99942318 -.00000021  00000-0  00000+0 0  9999
2 39533  54.1894 275.9832 0030313 187.5252 172.4736  2.00573075 28157
GPS BIIF-6  (PRN 06)    
1 39741U 14026A   17360.28838795 -.00000022  00000-0  00000+0 0  9998
2 39741  55.5405  92.6386 0011216 282.8249  77.0651  2.00578977 26447
GPS BIIF-7  (PRN 09)    
1 40105U 14045A   17360.37450468  .00000089  00000-0  00000+0 0  9994
2 40105  54.6034 212.1390 0009074 101.5263 258.6475  2.00558847 24899
GPS BIIF-8  (PRN 03)    
1 40294U 14068A   17360.24431034  .00000091  00000-0  00000+0 0  9995
2 40294  55.0340 152.8589 0010532  23.0478 336.9903  2.00572994 23119
GPS BIIF-9  (PRN 26)    
1 40534U 15013A   17360.38390993 -.00000043  00000-0  00000+0 0  9994
2 40534  54.8502 331.8991 0024741 351.3598   8.6056  2.00573972 20189
GPS BIIF-10  (PRN 08)   
1 40730U 15033A   17360.54260273 -.00000050  00000-0  00000+0 0  9997
2 40730  55.4836  32.1384 0032328 321.5265  38.3012  2.00556349 17942
GPS BIIF-11  (PRN 10)   
1 41019U 15062A   17360.09532148  .00000090  00000-0  00000+0 0  9996
2 41019  55.0412 152.6610 0031634 199.0671 160.8055  2.00563989 15750
GPS BIIF-12  (PRN 32)   
1 41328U 16007A   17360.18505918  .00000087  00000-0  00000+0 0  9990
2 41328  54.8571 212.3890 0016425 213.2013 146.7674  2.00569841 13818
